STARLINK-30869          
1 58437U 23183A   23361.58334491 -.02120342  00000+0 -83248-1 0  9997
2 58437  43.0001  91.1629 0001122 268.3733 304.4183 15.28557165  5871
STARLINK-30969          
1 58438U 23183B   23361.58334491 -.02052976  00000+0 -82018-1 0  9999
2 58438  42.9999  91.1907 0001044 270.5455 290.9999 15.27879501  5878
STARLINK-30951          
1 58439U 23183C   23361.58334491 -.02113392  00000+0 -81312-1 0  9996
2 58439  43.0000  91.1369 0000934 280.3597 303.3550 15.29199687  5873
STARLINK-30950          
1 58440U 23183D   23361.58399387  .00112933  00000+0  11511-2 0  9994
2 58440  43.0010  89.9287 0001318   2.8476 357.2396 15.64007140  5877
STARLINK-30942          
1 58441U 23183E   23361.58334491 -.02115375  00000+0 -78174-1 0  9994
2 58441  43.0000  91.0862 0001153 267.3786 337.1824 15.30492941  5872
STARLINK-30959          
1 58442U 23183F   23361.58334491 -.02115803  00000+0 -76621-1 0  9996
2 58442  43.0001  91.0620 0001129 261.9136 352.5736 15.31139603  5875
STARLINK-30971          
1 58443U 23183G   23361.58334491 -.02125148  00000+0 -61913-1 0  9998
2 58443  43.0004  90.8114 0001532 275.8517  81.6070 15.37919779  5887
STARLINK-30963          
1 58444U 23183H   23361.58334491 -.02125552  00000+0 -60647-1 0  9991
2 58444  43.0005  90.7960 0001529 277.6051  86.0990 15.38553667  5944
STARLINK-30961          
1 58445U 23183J   23361.58334491 -.02126899  00000+0 -59432-1 0  9997
2 58445  43.0004  90.7813 0001419 276.5421  93.0889 15.39187833  5942
STARLINK-30975          
1 58446U 23183K   23361.58334491 -.02091987  00000+0 -58238-1 0  9990
2 58446  43.0003  90.7674 0001484 277.8359  97.4027 15.39822542  5948
STARLINK-30976          
1 58447U 23183L   23361.58334491 -.00043570  00000+0 -16636-2 0  9991
2 58447  43.0013  91.8187 0001721 279.1037  22.7187 15.25949049  5948
STARLINK-30926          
1 58448U 23183M   23361.58334491 -.02120123  00000+0 -65812-1 0  9993
2 58448  42.9998  90.1150 0001366 265.7025  10.0619 15.35969974  5887
STARLINK-30943          
1 58449U 23183N   23361.58334491 -.00460610  00000+0 -28691-2 0  9995
2 58449  42.9997  86.9120 0001884 284.1041 201.3115 15.77227837  5949
STARLINK-30946          
1 58450U 23183P   23361.58334491 -.00814608  00000+0 -33117-1 0  9995
2 58450  43.0000  91.2151 0001352 274.2757 276.0974 15.26476630  5881
STARLINK-30944          
1 58451U 23183Q   23361.58334491 -.02115379  00000+0 -75470-1 0  9995
2 58451  43.0001  91.0351 0001213 261.9284   2.9498 15.31612443  5750
STARLINK-30928          
1 58452U 23183R   23361.58334491 -.02115393  00000+0 -73947-1 0  9999
2 58452  43.0001  91.0123 0001120 267.4658   6.7650 15.32258369  5870
STARLINK-30957          
1 58453U 23183S   23361.58334491 -.02115197  00000+0 -69352-1 0  9997
2 58453  43.0001  90.9506 0001304 265.3272  34.5138 15.34266321  5887
STARLINK-30966          
1 58454U 23183T   23361.58334491 -.02115593  00000+0 -67940-1 0  9999
2 58454  43.0003  90.9309 0001355 269.5495  38.2828 15.34912236  5879
STARLINK-30935          
1 58455U 23183U   23361.58334491 -.02115649  00000+0 -66537-1 0  9993
2 58455  43.0003  90.9119 0001494 274.9600  40.5315 15.35558399  5886
STARLINK-30960          
1 58456U 23183V   23361.58334491 -.02117294  00000+0 -63854-1 0  9991
2 58456  43.0003  90.8770 0001450 269.7537  60.0612 15.36852213  5871
STARLINK-30958          
1 58457U 23183W   23361.58334491 -.02116378  00000+0 -65179-1 0  9996
2 58457  43.0002  90.8943 0001555 270.5230  52.2955 15.36205759  5767
STARLINK-30962          
1 58458U 23183X   23361.58334491 -.02118472  00000+0 -62558-1 0  9992
2 58458  43.0003  90.8606 0001394 274.7252  61.7546 15.37498699  5675
STARLINK-30977          
1 58459U 23183Y   23361.58334491 -.02124337  00000+0 -61421-1 0  9998
2 58459  43.0003  90.8451 0001570 272.5631  70.2482 15.38149223  5667
PROGRESS-MS 25          
1 58460U 23184A   23361.55264223  .00019519  00000+0  35174-3 0  9992
2 58460  51.6406  90.7224 0003309 317.9149  42.1585 15.49786860431771
GNOMES-4                
1 58462U 23185A   23361.59371875  .00009705  00000+0  74305-3 0  9996
2 58462  97.6460  65.9953 0012292 151.7297 208.4597 15.02021487  3877
KORSAT 7                
1 58463U 23185B   23361.59401224  .00004192  00000+0  32494-3 0  9997
2 58463  97.6505  66.0100 0013944 156.5517 203.6346 15.01870379  3877
2023-185C               
1 58464U 23185C   23361.58667303  .00006340  00000+0  48321-3 0  9992
2 58464  97.6475  66.0140 0010930 156.9230 203.2487 15.02349476  3878
2023-185D               
1 58465U 23185D   23361.54736963  .00011610  00000+0  59920-3 0  9991
2 58465  97.4519  65.6430 0011197 161.1865 198.9784 15.16428434  3913
UHETSAT                 
1 58466U 23185E   23361.54324540  .00008798  00000+0  45278-3 0  9990
2 58466  97.4517  65.6473 0012855 160.5452 199.6275 15.16589410  3911
LILIUM-1                
1 58467U 23185F   23361.53801354  .00009148  00000+0  46411-3 0  9993
2 58467  97.4501  65.6460 0013206 163.1063 197.0613 15.17077416  3916
SPIRIT                  
1 58468U 23185G   23361.53735595  .00007056  00000+0  36041-3 0  9991
2 58468  97.4513  65.6532 0014291 160.5840 199.5941 15.16908285  3916
ION SCV-015             
1 58469U 23185H   23361.59425577  .00003242  00000+0  25273-3 0  9992
2 58469  97.6469  65.9978 0012233 152.7691 207.4177 15.01829812  3874
ENSO (ROBUSTA 1E)       
1 58470U 23185J   23361.59819406  .00014907  00000+0  74636-3 0  9999
2 58470  97.4528  65.7340 0014592 158.3038 201.8816 15.17396528  3922
HAYASAT-1               
1 58471U 23185K   23361.59749021  .00018739  00000+0  93346-3 0  9991
2 58471  97.4527  65.7345 0014261 158.5225 201.6610 15.17529039  3925
EIRSAT-1                
1 58472U 23185L   23361.59884739  .00016238  00000+0  81296-3 0  9991
2 58472  97.4521  65.7289 0014343 159.3718 200.8097 15.17382250  3926
STARLINK-30947          
1 58473U 23186A   23361.58334491 -.02208255  00000+0 -86593-1 0  9996
2 58473  43.0004 121.9810 0001048 275.9930 247.2955 15.28747674  4874
STARLINK-30995          
1 58474U 23186B   23361.58334491 -.02206286  00000+0 -84761-1 0  9994
2 58474  43.0005 121.9549 0001050 269.9340 264.2107 15.29403973  4876
STARLINK-30941          
1 58475U 23186C   23361.58334491 -.02206641  00000+0 -83055-1 0  9995
2 58475  43.0006 121.9292 0001102 269.5296 275.1402 15.30061235  4824
STARLINK-30980          
1 58476U 23186D   23361.58334491 -.02205378  00000+0 -81315-1 0  9999
2 58476  43.0006 121.9047 0001087 271.2818 283.5831 15.30717040  4871
STARLINK-30965          
1 58477U 23186E   23361.58334491 -.01731415  00000+0 -15911-1 0  9994
2 58477  43.0007 118.8036 0001603 281.5756  87.5000 15.69971533  4933
STARLINK-30990          
1 58478U 23186F   23361.58334491 -.02205967  00000+0 -79674-1 0  9990
2 58478  43.0007 121.8803 0001137 267.9605 296.7678 15.31374464  4971
STARLINK-30974          
1 58479U 23186G   23361.53908848  .00187461  21515-4  51476-3 0  9994
2 58479  42.9993 117.5532 0004151 309.5065  50.5443 15.93302933  5110
STARLINK-30984          
1 58480U 23186H   23361.58334491 -.02211566  00000+0 -64112-1 0  9996
2 58480  43.0006 121.5659 0001678 267.2813  65.2639 15.38204561  4875
STARLINK-30956          
1 58481U 23186J   23361.58662315 -.00007854  00000+0 -57860-4 0  9992
2 58481  42.9999 119.7487 0001919 271.9855  88.0793 15.70802282  4941
STARLINK-30997          
1 58482U 23186K   23358.35199996 -.00222416  00000+0 -35145-2 0  9997
2 58482  42.9993 140.2519 0009603 337.3522  22.6915 15.53349932  4429
STARLINK-30994          
1 58483U 23186L   23358.78165904 -.00102192  00000+0 -10403-2 0  9995
2 58483  43.0019 137.4449 0002754 319.1679  40.8980 15.64507509  4480
STARLINK-30991          
1 58484U 23186M   23361.58334491 -.02211264  00000+0 -64676-1 0  9990
2 58484  43.0007 121.5301 0001607 271.8494  75.6419 15.37934358  4876
STARLINK-30979          
1 58485U 23186N   23361.58334491 -.02206200  00000+0 -76437-1 0  9993
2 58485  43.0009 121.8340 0001185 270.7939 312.6687 15.32688665  4871
STARLINK-31005          
1 58486U 23186P   23361.58334491 -.02206325  00000+0 -74858-1 0  9997
2 58486  43.0006 121.8118 0001229 262.0147 330.3188 15.33345884  4873
STARLINK-30987          
1 58487U 23186Q   23361.58334491 -.02206826  00000+0 -73318-1 0  9994
2 58487  43.0008 121.7910 0001298 263.1069 337.7661 15.34003391  4878
STARLINK-31000          
1 58488U 23186R   23361.58334491 -.02206627  00000+0 -71780-1 0  9995
2 58488  43.0008 121.7706 0001368 263.1905 345.8912 15.34659949  4829
STARLINK-30993          
1 58489U 23186S   23361.58334491 -.02208043  00000+0 -70317-1 0  9995
2 58489  43.0008 121.7512 0001811 265.7330 351.2265 15.35316973  4873
STARLINK-30978          
1 58490U 23186T   23361.58334491 -.02208254  00000+0 -68847-1 0  9996
2 58490  43.0008 121.7328 0001516 263.7526   0.7531 15.35975210  4885
STARLINK-30953          
1 58491U 23186U   23361.58334491  .00051382  00000+0  93012-3 0  9995
2 58491  43.0002 121.3903 0001677 269.6343 135.6275 15.48877703  5140
STARLINK-30986          
1 58492U 23186V   23361.58334491 -.02208228  00000+0 -64450-1 0  9995
2 58492  43.0007 121.6844 0001520 266.3774  18.3335 15.37995002  4876
STARLINK-30985          
1 58493U 23186W   23361.58334491 -.02209908  00000+0 -63126-1 0  9991
2 58493  43.0007 121.6693 0001307 267.5992  23.3110 15.38652303  4879
STARLINK-30981          
1 58494U 23186X   23361.58334491 -.02209217  00000+0 -61743-1 0  9998
2 58494  43.0005 121.6548 0001530 271.3688  25.4089 15.39309091  4872
STARLINK-31002          
1 58495U 23186Y   23361.58334491 -.02211475  00000+0 -60477-1 0  9991
2 58495  43.0007 121.6413 0001421 270.1824  32.1321 15.39967345  5084
2023-187A               
1 58496U 23187A   23361.56875536  .00003620  00000+0  50249-3 0  9996
2 58496  98.0064  73.5455 0012426 192.2144 167.8767 14.78488513  3451
2023-187B               
1 58497U 23187B   23361.57215216  .00002443  00000+0  34340-3 0  9997
2 58497  98.0080  73.5452 0012110 189.0402 171.0592 14.78252075  3442
